ONEWEB-0434             
1 51631U 22012K   25152.31608930 -.00000070  00000+0 -23618-3 0  9999
2 51631  87.8819 112.2352 0001995  63.9956 296.1377 13.10376818160737
ONEWEB-0435             
1 51632U 22012L   25151.94262839  .00000436  00000+0  12139-2 0  9991
2 51632  87.8818 112.3021 0001768  92.8137 267.3193 13.10377601159387
ONEWEB-0436             
1 51633U 22012M   25151.86077880  .00000087  00000+0  19210-3 0  9993
2 51633  87.9063  81.7666 0001971  86.9935 273.1422 13.17649326163468
ONEWEB-0438             
1 51634U 22012N   25151.84964086 -.00000410  00000+0 -12095-2 0  9990
2 51634  87.8819 112.3216 0002053  77.4977 282.6380 13.10375091159407
ONEWEB-0439             
1 51635U 22012P   25151.85296097 -.00000261  00000+0 -78521-3 0  9993
2 51635  87.8821 112.3085 0002005  83.0190 277.1165 13.10377117159380
ONEWEB-0442             
1 51636U 22012Q   25151.85316476 -.00000282  00000+0 -76060-3 0  9997
2 51636  87.9073  81.8164 0002441  66.6336 293.5052 13.17648892163450
ONEWEB-0443             
1 51637U 22012R   25151.87258335  .00000075  00000+0  15997-3 0  9999
2 51637  87.9070  81.8251 0001841  70.6225 289.5106 13.17650330163501
ONEWEB-0444             
1 51638U 22012S   25151.91935457 -.00000558  00000+0 -16355-2 0  9998
2 51638  87.8812 112.2991 0001870  84.3418 275.7922 13.10373882159407
ONEWEB-0445             
1 51639U 22012T   25152.17002518  .00000231  00000+0  62524-3 0  9997
2 51639  87.8810 112.2049 0002236  81.2196 278.9185 13.10375565160729
ONEWEB-0446             
1 51640U 22012U   25151.91769677 -.00000630  00000+0 -18411-2 0  9996
2 51640  87.8816 112.3115 0002278  84.5965 275.5422 13.10373472159391
ONEWEB-0448             
1 51641U 22012V   25152.38081731 -.00000557  00000+0 -16314-2 0  9995
2 51641  87.8817 112.2192 0001995  81.6501 278.4852 13.10375606160714
ONEWEB-0449             
1 51642U 22012W   25151.85130309 -.00000325  00000+0 -96797-3 0  9990
2 51642  87.8812 112.3003 0002006  69.0408 291.0934 13.10375530159369
ONEWEB-0451             
1 51643U 22012X   25152.54083100  .00000111  00000+0  25145-3 0  9994
2 51643  87.9060  81.6214 0002030  74.2185 285.9170 13.17649269164837
ONEWEB-0452             
1 51644U 22012Y   25151.77977425  .00000097  00000+0  21660-3 0  9992
2 51644  87.9067  81.8344 0001888  71.0353 289.0983 13.17648366163443
ONEWEB-0456             
1 51646U 22012AA  25151.93762668  .00000169  00000+0  44676-3 0  9995
2 51646  87.8810 112.2427 0002009  88.9033 271.2325 13.10377143159419
ONEWEB-0457             
1 51647U 22012AB  25151.91437758 -.00000636  00000+0 -18585-2 0  9993
2 51647  87.8814 112.3007 0002262  74.5637 285.5740 13.10372342159416
ONEWEB-0458             
1 51648U 22012AC  25151.85960747  .00000078  00000+0  18744-3 0  9992
2 51648  87.8803 112.2953 0001940  81.0126 279.1220 13.10376656159360
ONEWEB-0461             
1 51649U 22012AD  25151.80171821  .00000099  00000+0  22180-3 0  9997
2 51649  87.9064  81.7830 0002095  77.9987 282.1379 13.17650215163666
ONEWEB-0463             
1 51650U 22012AE  25152.54251809  .00000065  00000+0  13415-3 0  9990
2 51650  87.9067  81.6975 0001993  78.0779 282.0576 13.17649126164845
ONEWEB-0464             
1 51651U 22012AF  25151.85628538 -.00000081  00000+0 -26840-3 0  9997
2 51651  87.8821 112.3208 0001903  91.4731 268.6614 13.10376511159386
ONEWEB-0468             
1 51652U 22012AG  25152.16835809  .00000217  00000+0  58402-3 0  9992
2 51652  87.8821 112.2505 0002022  82.7473 277.3884 13.10375981160697
ONEWEB-0473             
1 51653U 22012AH  25151.84797993 -.00000443  00000+0 -13042-2 0  9991
2 51653  87.8819 112.3178 0001921  81.8610 278.2735 13.10374640159360
ONEWEB-0474             
1 51654U 22012AJ  25151.91603605 -.00000638  00000+0 -18645-2 0  9996
2 51654  87.8808 112.2693 0001803  85.9029 274.2305 13.10372998160655
ONEWEB-0475             
1 51655U 22012AK  25152.17464466  .00000094  00000+0  20775-3 0  9998
2 51655  87.9068  81.7506 0001224  77.4167 282.7101 13.17650652164806
EOS-4                   
1 51656U 22013A   25152.55130835  .00005284  00000+0  30515-3 0  9991
2 51656  97.5115 159.9862 0002009  95.7955 264.3505 15.12737594181946
INSPIRESAT 1            
1 51657U 22013B   25152.54375170  .00079646  00000+0  16790-2 0  9995
2 51657  97.4904 181.8452 0006186  24.2968 335.8571 15.44935501183146
STARLINK-3528           
1 51714U 22016A   25152.29008229  .00000735  00000+0  64261-4 0  9993
2 51714  53.2167 152.3515 0001126  97.1598 262.9522 15.08855886182019
STARLINK-3533           
1 51715U 22016B   25152.28274401 -.00000068  00000+0  13810-4 0  9994
2 51715  53.2162 152.4143 0001187  86.8493 273.2635 15.08833813182071
STARLINK-3543           
1 51716U 22016C   25152.28914300  .00000115  00000+0  25331-4 0  9997
2 51716  53.2162 152.3774 0000821  34.7458 325.3588 15.08837897182014
STARLINK-3445           
1 51717U 22016D   25152.29379503 -.00000398  00000+0 -68917-5 0  9992
2 51717  53.2166 152.4429 0001286  90.6806 269.4333 15.08833931182089
STARLINK-3546           
1 51718U 22016E   25152.40321872 -.00000058  00000+0  14450-4 0  9996
2 51718  53.2159 151.8620 0001025  85.2155 274.8954 15.08843131182022
STARLINK-3540           
1 51719U 22016F   25152.41795114 -.00000467  00000+0 -11229-4 0  9998
2 51719  53.2164 151.8766 0001335  85.1433 274.9711 15.08839268182031
STARLINK-3526           
1 51720U 22016G   25152.26433570 -.00000020  00000+0  16799-4 0  9999
2 51720  53.2166 152.4557 0001098  80.1896 279.9220 15.08858030181996
STARLINK-3524           
1 51721U 22016H   25151.74545908  .00000274  00000+0  35320-4 0  9992
2 51721  53.2163 154.8255 0001116  82.6694 277.4425 15.08839256180863
STARLINK-3535           
1 51722U 22016J   25151.72978443  .00000529  00000+0  51343-4 0  9991
2 51722  53.2162 154.8840 0001145  84.0188 276.0935 15.08837958180856
STARLINK-3529           
1 51724U 22016L   25151.39122277 -.00000178  00000+0  69230-5 0  9998
2 51724  53.2162 156.4062 0001255  90.4510 269.6626 15.08837618180807
STARLINK-3522           
1 51725U 22016M   25152.39586220 -.00000209  00000+0  49580-5 0  9993
2 51725  53.2164 151.8932 0001424  71.9731 288.1416 15.08841698182091
STARLINK-3527           
1 51726U 22016N   25152.22750688  .00000629  00000+0  57580-4 0  9990
2 51726  53.2159 142.6498 0001173  83.0237 277.0889 15.08837646182142
STARLINK-3532           
1 51727U 22016P   25152.18979247 -.00000786  00000+0 -31298-4 0  9994
2 51727  53.2161 152.8206 0001254  85.4787 274.6348 15.08834088181994
STARLINK-3523           
1 51729U 22016R   25152.29742395  .00000366  00000+0  41062-4 0  9992
2 51729  53.2157 142.3360 0000746  88.1658 271.9420 15.08839553182228
STARLINK-3514           
1 51731U 22016T   25151.69390957  .00001523  00000+0  11379-3 0  9994
2 51731  53.2163 145.0470 0001241  62.5680 297.5438 15.08831969180990
STARLINK-3518           
1 51732U 22016U   25152.27531749  .00001758  00000+0  12846-3 0  9996
2 51732  53.2151 142.4301 0001324  57.6393 302.4727 15.08858436182223
STARLINK-3525           
1 51733U 22016V   25152.15118366 -.00001318  00000+0 -64745-4 0  9990
2 51733  53.2180 143.0064 0001333  96.5646 263.5498 15.08843306182134
STARLINK-3450           
1 51734U 22016W   25152.19805068  .00002835  00000+0  19602-3 0  9991
2 51734  53.2170 142.7848 0001391  82.1911 277.9239 15.08862447182173
STARLINK-3517           
1 51735U 22016X   25151.67551652 -.00001167  00000+0 -55308-4 0  9994
2 51735  53.2148 145.1282 0001028  78.8862 281.2245 15.08822710180994
STARLINK-3447           
1 51736U 22016Y   25152.19903475 -.00000494  00000+0 -12986-4 0  9994
2 51736  53.2169 142.8687 0001239  82.0786 278.0347 15.08832824182195
STARLINK-3509           
1 51737U 22016Z   25152.26798408  .00000217  00000+0  31723-4 0  9992
2 51737  53.2163 142.4714 0001125  82.0847 278.0273 15.08838767182133
STARLINK-3515           
1 51738U 22016AA  25152.38205705  .00000120  00000+0  25611-4 0  9991
2 51738  53.2166 141.9560 0001272  74.4122 285.7011 15.08841851182205
STARLINK-3516           
1 51739U 22016AB  25152.26062596 -.00000702  00000+0 -25993-4 0  9999
2 51739  53.2165 142.5046 0001372  90.5058 269.6091 15.08834793182205
STARLINK-3500           
1 51740U 22016AC  25152.24221290  .00001613  00000+0  11939-3 0  9991
2 51740  53.2167 142.5826 0001181  82.3610 277.7517 15.08850994182132
STARLINK-3520           
1 51741U 22016AD  25152.25421755  .00000222  00000+0  32051-4 0  9995
2 51741  53.2171 142.5407 0001360  89.8213 270.2935 15.08842768182191
STARLINK-3521           
1 51742U 22016AE  25152.38949056 -.00005106  00000+0 -30328-3 0  9991
2 51742  53.2164 142.1182 0001398  92.8427 267.2726 15.08798304182226
STARLINK-3512           
1 51743U 22016AF  25152.19161642  .00000227  00000+0  32379-4 0  9994
2 51743  53.2169 132.7366 0001398  90.2471 269.8681 15.08838315182340
STARLINK-3452           
1 51744U 22016AG  25152.36734322  .00000338  00000+0  39338-4 0  9990
2 51744  53.2164 142.0508 0001166  74.7084 285.4037 15.08843604182153
STARLINK-3449           
1 51745U 22016AH  25152.37838204 -.00000899  00000+0 -38367-4 0  9991
2 51745  53.2171 141.9717 0001361  92.4163 267.6985 15.08845647182225
STARLINK-3502           
1 51746U 22016AJ  25151.66634482 -.00001707  00000+0 -89163-4 0  9994
2 51746  53.2168 135.1815 0001394  88.7083 271.4069 15.08846191181120
STARLINK-3446           
1 51747U 22016AK  25152.23951712 -.00000919  00000+0 -39676-4 0  9995
2 51747  53.2165 142.6433 0001266  81.3058 278.8078 15.08828518182200
STARLINK-3501           
1 51748U 22016AL  25152.18794211 -.00000047  00000+0  15133-4 0  9992
2 51748  53.2163 132.8302 0001368  83.8707 276.2441 15.08839962182274
STARLINK-3451           
1 51749U 22016AM  25151.68656769  .00000845  00000+0  71159-4 0  9997
2 51749  53.2170 145.2630 0001220  71.2093 288.9032 15.08835517180985
